start=new Date('2021-09-25T00:00:00.000Z').valueOf();
sats=[{"APOAPSIS":"548.049","CLASSIFICATION_TYPE":"U","OBJECT_TYPE":"PAYLOAD","ARG_OF_PERICENTER":"61.5262","FILE":"3126800","MEAN_ANOMALY":"298.5849","COUNTRY_CODE":"US","NORAD_CAT_ID":"45412","EPHEMERIS_TYPE":"0","OBJECT_NAME":"STARLINK-1296","MEAN_MOTION":"15.06401215","MEAN_ELEMENT_THEORY":"SGP4","ELEMENT_SET_NO":"999","DECAY_DATE":null,"REF_FRAME":"TEME","RA_OF_ASC_NODE":"240.8167","MEAN_MOTION_DOT":"-0.00000198","LAUNCH_DATE":"2020-03-18","REV_AT_EPOCH":"8462","PERIOD":"95.592","TLE_LINE1":"1 45412U 20019BE  21267.62168072 -.00000198  00000-0  56269-5 0  9990","EPOCH":"2021-09-24T14:55:13.214208","CENTER_NAME":"EARTH","OBJECT_ID":"2020-019BE","MEAN_MOTION_DDOT":"0.0000000000000","INCLINATION":"53.0555","BSTAR":"0.00000562690000","GP_ID":"185426690","RCS_SIZE":"LARGE","SITE":"AFETR","TIME_SYSTEM":"UTC","ECCENTRICITY":"0.00012120","SEMIMAJOR_AXIS":"6925.345","PERIAPSIS":"546.370","TLE_LINE2":"2 45412  53.0555 240.8167 0001212  61.5262 298.5849 15.06401215 84627"},{"INCLINATION":"53.0551","MEAN_MOTION_DDOT":"0.0000000000000","OBJECT_ID":"2020-019BF","GP_ID":"185426940","BSTAR":"-0.00003047200000","TIME_SYSTEM":"UTC","SITE":"AFETR","RCS_SIZE":"LARGE","ECCENTRICITY":"0.00013230","PERIAPSIS":"546.299","SEMIMAJOR_AXIS":"6925.350","TLE_LINE2":"2 45413  53.0551 240.6879 0001323  56.3361 303.7754 15.06399566 84727","REV_AT_EPOCH":"8472","TLE_LINE1":"1 45413U 20019BF  21267.65116751 -.00000735  00000-0 -30472-4 0  9996","PERIOD":"95.592","EPOCH":"2021-09-24T15:37:40.872864","CENTER_NAME":"EARTH","OBJECT_NAME":"STARLINK-1298","MEAN_MOTION":"15.06399566","ELEMENT_SET_NO":"999","DECAY_DATE":null,"MEAN_ELEMENT_THEORY":"SGP4","REF_FRAME":"TEME","RA_OF_ASC_NODE":"240.6879","MEAN_MOTION_DOT":"-0.00000735","LAUNCH_DATE":"2020-03-18","APOAPSIS":"548.131","OBJECT_TYPE":"PAYLOAD","CLASSIFICATION_TYPE":"U","ARG_OF_PERICENTER":"56.3361","MEAN_ANOMALY":"303.7754","FILE":"3126800","COUNTRY_CODE":"US","NORAD_CAT_ID":"45413","EPHEMERIS_TYPE":"0"},{"REV_AT_EPOCH":"8465","PERIOD":"95.592","TLE_LINE1":"1 45414U 20019BG  21267.90181353  .00002003  00000-0  15331-3 0  9999","EPOCH":"2021-09-24T21:38:36.688992","CENTER_NAME":"EARTH","OBJECT_ID":"2020-019BG","MEAN_MOTION_DDOT":"0.0000000000000","INCLINATION":"53.0548","RCS_SIZE":"LARGE","SITE":"AFETR","TIME_SYSTEM":"UTC","BSTAR":"0.00015331000000","GP_ID":"185427689","SEMIMAJOR_AXIS":"6925.329","PERIAPSIS":"546.425","ECCENTRICITY":"0.00011110","TLE_LINE2":"2 45414  53.0548 239.5628 0001111  72.1975 287.9135 15.06406232 84652","APOAPSIS":"547.964","ARG_OF_PERICENTER":"72.1975","CLASSIFICATION_TYPE":"U","OBJECT_TYPE":"PAYLOAD","COUNTRY_CODE":"US","FILE":"3126800","MEAN_ANOMALY":"287.9135","NORAD_CAT_ID":"45414","EPHEMERIS_TYPE":"0","OBJECT_NAME":"STARLINK-1309","MEAN_ELEMENT_THEORY":"SGP4","ELEMENT_SET_NO":"999","DECAY_DATE":null,"MEAN_MOTION":"15.06406232","RA_OF_ASC_NODE":"239.5628","REF_FRAME":"TEME","LAUNCH_DATE":"2020-03-18","MEAN_MOTION_DOT":"0.00002003"},{"ECCENTRICITY":"0.00009970","PERIAPSIS":"546.525","SEMIMAJOR_AXIS":"6925.350","TLE_LINE2":"2 45415  53.0520 240.6360 0000997  63.8126 296.2966 15.06399462 84656","OBJECT_ID":"2020-019BH","MEAN_MOTION_DDOT":"0.0000000000000","INCLINATION":"53.0520","BSTAR":"0.00011574000000","GP_ID":"185428441","RCS_SIZE":"LARGE","SITE":"AFETR","TIME_SYSTEM":"UTC","PERIOD":"95.592","TLE_LINE1":"1 45415U 20019BH  21267.66222777  .00001443  00000-0  11574-3 0  9991","CENTER_NAME":"EARTH","EPOCH":"2021-09-24T15:53:36.479328","REV_AT_EPOCH":"8465","REF_FRAME":"TEME","RA_OF_ASC_NODE":"240.6360","MEAN_MOTION_DOT":"0.00001443","LAUNCH_DATE":"2020-03-18","OBJECT_NAME":"STARLINK-1316","MEAN_MOTION":"15.06399462","MEAN_ELEMENT_THEORY":"SGP4","ELEMENT_SET_NO":"999","DECAY_DATE":null,"FILE":"3126800","COUNTRY_CODE":"US","MEAN_ANOMALY":"296.2966","EPHEMERIS_TYPE":"0","NORAD_CAT_ID":"45415","APOAPSIS":"547.906","CLASSIFICATION_TYPE":"U","OBJECT_TYPE":"PAYLOAD","ARG_OF_PERICENTER":"63.8126"},{"ECCENTRICITY":"0.00011950","PERIAPSIS":"546.385","SEMIMAJOR_AXIS":"6925.347","TLE_LINE2":"2 45416  53.0543 240.7845 0001195  71.9395 288.1724 15.06400371 84632","MEAN_MOTION_DDOT":"0.0000000000000","INCLINATION":"53.0543","OBJECT_ID":"2020-019BJ","GP_ID":"185427190","BSTAR":"0.00016757000000","SITE":"AFETR","RCS_SIZE":"LARGE","TIME_SYSTEM":"UTC","TLE_LINE1":"1 45416U 20019BJ  21267.62905653  .00002215  00000-0  16757-3 0  9995","PERIOD":"95.592","EPOCH":"2021-09-24T15:05:50.484192","CENTER_NAME":"EARTH","REV_AT_EPOCH":"8463","REF_FRAME":"TEME","RA_OF_ASC_NODE":"240.7845","MEAN_MOTION_DOT":"0.00002215","LAUNCH_DATE":"2020-03-18","OBJECT_NAME":"STARLINK-1318","MEAN_MOTION":"15.06400371","ELEMENT_SET_NO":"999","DECAY_DATE":null,"MEAN_ELEMENT_THEORY":"SGP4","FILE":"3126800","MEAN_ANOMALY":"288.1724","COUNTRY_CODE":"US","EPHEMERIS_TYPE":"0","NORAD_CAT_ID":"45416","APOAPSIS":"548.040","OBJECT_TYPE":"PAYLOAD","CLASSIFICATION_TYPE":"U","ARG_OF_PERICENTER":"71.9395"},{"NORAD_CAT_ID":"45417","EPHEMERIS_TYPE":"0","COUNTRY_CODE":"US","FILE":"3126800","MEAN_ANOMALY":"303.6153","CLASSIFICATION_TYPE":"U","OBJECT_TYPE":"PAYLOAD","ARG_OF_PERICENTER":"56.4940","APOAPSIS":"547.989","MEAN_MOTION_DOT":"-0.00000965","LAUNCH_DATE":"2020-03-18","REF_FRAME":"TEME","RA_OF_ASC_NODE":"270.4689","MEAN_MOTION":"15.06394734","ELEMENT_SET_NO":"999","DECAY_DATE":null,"MEAN_ELEMENT_THEORY":"SGP4","OBJECT_NAME":"STARLINK-1286","CENTER_NAME":"EARTH","EPOCH":"2021-09-24T16:48:01.494720","TLE_LINE1":"1 45417U 20019BK  21267.70001730 -.00000965  00000-0 -45931-4 0  9997","PERIOD":"95.592","REV_AT_EPOCH":"8449","TLE_LINE2":"2 45417  53.0546 270.4689 0001096  56.4940 303.6153 15.06394734 84494","ECCENTRICITY":"0.00010960","SEMIMAJOR_AXIS":"6925.365","PERIAPSIS":"546.471","GP_ID":"185427440","BSTAR":"-0.00004593100000","SITE":"AFETR","RCS_SIZE":"LARGE","TIME_SYSTEM":"UTC","MEAN_MOTION_DDOT":"0.0000000000000","INCLINATION":"53.0546","OBJECT_ID":"2020-019BK"},{"OBJECT_NAME":"STARLINK-1299","DECAY_DATE":null,"ELEMENT_SET_NO":"999","MEAN_ELEMENT_THEORY":"SGP4","MEAN_MOTION":"15.00965244","RA_OF_ASC_NODE":"286.6897","REF_FRAME":"TEME","LAUNCH_DATE":"2020-03-18","MEAN_MOTION_DOT":"0.00003540","APOAPSIS":"564.645","ARG_OF_PERICENTER":"79.2822","OBJECT_TYPE":"PAYLOAD","CLASSIFICATION_TYPE":"U","FILE":"3126800","MEAN_ANOMALY":"280.8282","COUNTRY_CODE":"US","EPHEMERIS_TYPE":"0","NORAD_CAT_ID":"45418","MEAN_MOTION_DDOT":"0.0000000000000","INCLINATION":"53.0006","OBJECT_ID":"2020-019BL","SITE":"AFETR","TIME_SYSTEM":"UTC","RCS_SIZE":"LARGE","GP_ID":"185428189","BSTAR":"0.00029527000000","PERIAPSIS":"563.196","SEMIMAJOR_AXIS":"6942.056","ECCENTRICITY":"0.00010430","TLE_LINE2":"2 45418  53.0006 286.6897 0001043  79.2822 280.8282 15.00965244 83997","REV_AT_EPOCH":"8399","TLE_LINE1":"1 45418U 20019BL  21267.74699548  .00003540  00000-0  29527-3 0  9994","PERIOD":"95.938","CENTER_NAME":"EARTH","EPOCH":"2021-09-24T17:55:40.409472"},{"COUNTRY_CODE":"US","FILE":"3126002","MEAN_ANOMALY":"291.6507","NORAD_CAT_ID":"45419","EPHEMERIS_TYPE":"0","APOAPSIS":"547.795","ARG_OF_PERICENTER":"68.4573","OBJECT_TYPE":"PAYLOAD","CLASSIFICATION_TYPE":"U","RA_OF_ASC_NODE":"271.6766","REF_FRAME":"TEME","LAUNCH_DATE":"2020-03-18","MEAN_MOTION_DOT":"-0.00000291","OBJECT_NAME":"STARLINK-1308","ELEMENT_SET_NO":"999","DECAY_DATE":null,"MEAN_ELEMENT_THEORY":"SGP4","MEAN_MOTION":"15.06404285","TLE_LINE1":"1 45419U 20019BM  21267.43093743 -.00000291  00000-0 -62423-6 0  9993","PERIOD":"95.592","CENTER_NAME":"EARTH","EPOCH":"2021-09-24T10:20:32.993952","REV_AT_EPOCH":"8420","PERIAPSIS":"546.606","SEMIMAJOR_AXIS":"6925.335","ECCENTRICITY":"0.00008590","TLE_LINE2":"2 45419  53.0525 271.6766 0000859  68.4573 291.6507 15.06404285 84204","MEAN_MOTION_DDOT":"0.0000000000000","INCLINATION":"53.0525","OBJECT_ID":"2020-019BM","TIME_SYSTEM":"UTC","SITE":"AFETR","RCS_SIZE":"LARGE","GP_ID":"185384676","BSTAR":"-0.00000062423000"},{"FILE":"3126002","MEAN_ANOMALY":"287.7508","COUNTRY_CODE":"US","EPHEMERIS_TYPE":"0","NORAD_CAT_ID":"45531","APOAPSIS":"548.412","ARG_OF_PERICENTER":"72.3674","CLASSIFICATION_TYPE":"U","OBJECT_TYPE":"PAYLOAD","RA_OF_ASC_NODE":"212.3987","REF_FRAME":"TEME","LAUNCH_DATE":"2020-04-22","MEAN_MOTION_DOT":"0.00002105","OBJECT_NAME":"STARLINK-1329","MEAN_ELEMENT_THEORY":"SGP4","ELEMENT_SET_NO":"999","DECAY_DATE":null,"MEAN_MOTION":"15.06407089","PERIOD":"95.592","TLE_LINE1":"1 45531U 20025A   21267.26691505  .00002105  00000-0  16016-3 0  9994","EPOCH":"2021-09-24T06:24:21.460320","CENTER_NAME":"EARTH","REV_AT_EPOCH":"7980","PERIAPSIS":"545.972","SEMIMAJOR_AXIS":"6925.327","ECCENTRICITY":"0.00017620","TLE_LINE2":"2 45531  53.0534 212.3987 0001762  72.3674 287.7508 15.06407089 79808","OBJECT_ID":"2020-025A","INCLINATION":"53.0534","MEAN_MOTION_DDOT":"0.0000000000000","TIME_SYSTEM":"UTC","SITE":"AFETR","RCS_SIZE":"LARGE","BSTAR":"0.00016016000000","GP_ID":"185385689"},{"TLE_LINE1":"1 45532U 20025B   21267.54335277 -.00000516  00000-0 -15763-4 0  9992","PERIOD":"95.592","EPOCH":"2021-09-24T13:02:25.679328","CENTER_NAME":"EARTH","REV_AT_EPOCH":"7984","PERIAPSIS":"546.033","SEMIMAJOR_AXIS":"6925.338","ECCENTRICITY":"0.00016890","TLE_LINE2":"2 45532  53.0546 211.1677 0001689  68.7331 291.3838 15.06403556 79848","MEAN_MOTION_DDOT":"0.0000000000000","INCLINATION":"53.0546","OBJECT_ID":"2020-025B","TIME_SYSTEM":"UTC","SITE":"AFETR","RCS_SIZE":"LARGE","GP_ID":"185428201","BSTAR":"-0.00001576300000","FILE":"3126800","COUNTRY_CODE":"US","MEAN_ANOMALY":"291.3838","NORAD_CAT_ID":"45532","EPHEMERIS_TYPE":"0","APOAPSIS":"548.372","ARG_OF_PERICENTER":"68.7331","CLASSIFICATION_TYPE":"U","OBJECT_TYPE":"PAYLOAD","RA_OF_ASC_NODE":"211.1677","REF_FRAME":"TEME","LAUNCH_DATE":"2020-04-22","MEAN_MOTION_DOT":"-0.00000516","OBJECT_NAME":"STARLINK-1338","ELEMENT_SET_NO":"999","DECAY_DATE":null,"MEAN_ELEMENT_THEORY":"SGP4","MEAN_MOTION":"15.06403556"}];
